#aV2010  4 18  0  0   .00000000      96 DD+AD WGS84 FIT  NGA
## 1580       .00000000   900.00000000 55304  .0000000000000
+   31     1  2  3  4  5  6  7  8  9 10 11 12 13 14 15 16 17
+         18 19 20 21 22 23 24 26 27 28 29 30 31 32  0  0  0
+          0  0  0  0  0  0  0  0  0  0  0  0  0  0  0  0  0
+          0  0  0  0  0  0  0  0  0  0  0  0  0  0  0  0  0
+          0  0  0  0  0  0  0  0  0  0  0  0  0  0  0  0  0
++         0  0  0  0  0  0  0  0  0  0  0  0  0  0  0  0  0
++         0  0  0  0  0  0  0  0  0  0  0  0  0  0  0  0  0
++         0  0  0  0  0  0  0  0  0  0  0  0  0  0  0  0  0
++         0  0  0  0  0  0  0  0  0  0  0  0  0  0  0  0  0
++         0  0  0  0  0  0  0  0  0  0  0  0  0  0  0  0  0
%c cc cc ccc ccc cccc cccc cccc cccc ccccc ccccc ccccc ccccc
%c cc cc ccc ccc cccc cccc cccc cccc ccccc ccccc ccccc ccccc
%f  0.0000000  0.000000000  0.00000000000  0.000000000000000
%f  0.0000000  0.000000000  0.00000000000  0.000000000000000
%i    0    0    0    0      0      0      0      0         0
%i    0    0    0    0      0      0      0      0         0
/*      NGA, ST. LOUIS,MO.                                  
/*   EPHEMERIS COMPUTED FROM  3 DAYS OF DATA                
/* CCCCCCCCCCCCCCCCCCCCCCCCCCCCCCCCCCCCCCCCCCCCCCCCCCCCCCCCC
/* CCCCCCCCCCCCCCCCCCCCCCCCCCCCCCCCCCCCCCCCCCCCCCCCCCCCCCCCC
*  2010  4 18  5 45   .00000000                                                 
P  1  -1535.312130  16812.435360 -20596.060750   -110.557988                    
V  1 -23530.351194  10873.667021  10828.216588      -.040739                    
P  2 -14177.684671 -10450.996613 -20032.959061    247.511593                    
V  2   2124.268532 -25249.816825  11234.712901       .036308                    
P  3  24728.122461   9480.030625   3387.095924    543.399033                    
V  3   2621.576023   5303.301795 -30369.939872       .050936                    
P  4  -7020.108747 -22782.337283 -11492.325505     62.508767                    
V  4   4054.670897 -14292.271404  26601.611105       .085290                    
P  5 -21732.924129  -1049.259570 -15311.271256     -1.877775                    
V  5  16392.655233 -10520.938857 -22492.770567      -.000497                    
P  6  23271.302812  12937.396688    907.211923    663.619399                    
V  6   -987.472245   3520.505219 -31036.450218      -.096325                    
P  7   6780.811349 -24410.675733  -7705.007442       .388751                    
V  7   1840.453555   9933.676564 -30045.523927      -.004161                    
P  8    117.593995 -25811.742718   4902.529898      4.949236                    
V  8   2978.497464  -5985.714912 -31992.595712       .002886                    
P  9 -13973.960580   8240.402247  20482.676759      1.524836                    
V  9    -30.668384 -27217.179490  10700.967456       .021367                    
P 10 -15747.221281  -8252.255775 -20017.236425    -40.575404                    
V 10  22114.639992 -11572.736405 -12400.738026      -.008647                    
P 11  13005.469092 -13283.538424  18598.633585    -57.218900                    
V 11   6540.965555  23805.399428  12623.384728      -.022831                    
P 12 -23688.775222  11823.661276   -272.498648   -125.385418                    
V 12  -1537.766384  -2201.811339  32058.990821       .044004                    
P 13   7105.214378 -12842.954467 -22272.065530    305.218144                    
V 13  22255.720386  16755.481130  -2597.135927      -.002980                    
P 14  11718.175098  19702.372539  13658.935626     35.270191                    
V 14 -14623.139985  -8836.163752  25422.106362       .045587                    
P 15 -22988.761540  -3788.946329  12876.231203   -285.184646                    
V 15 -12487.594572 -10732.809253 -25365.869903       .048887                    
P 16  17721.785837   5969.269676 -18923.379396    -62.684602                    
V 16 -21253.529561  11204.563293 -16060.795530      -.038620                    
P 17 -11555.008188 -19729.381793  13791.615482    145.034863                    
V 17  15360.108584   8143.486408  24492.158154       .025920                    
P 18 -11506.026033  18136.056275  15641.066366     62.594247                    
V 18 -18838.106130   6035.272416 -21589.381698       .024446                    
P 19  22176.030037   4606.513507  14151.011974    -28.857429                    
V 19  12828.229715  12497.178299 -23933.344336      -.025785                    
P 20  22070.592192 -14442.351105  -3005.003152     57.545997                    
V 20   4916.470815   1377.378823  30959.110955      -.006427                    
P 21  -4112.055857  25673.479860  -3035.621563    -54.225676                    
V 21  -3911.371394  -4626.005630 -31215.161816      -.025612                    
P 22   1022.002662  16533.402905  20906.934116    174.177570                    
V 22 -24185.331537  10357.946659  -7150.238157      -.008535                    
P 23  15800.157641  -6375.928877 -20483.030658    373.864119                    
V 23  21034.478993  15029.217151  11258.581717      -.012625                    
P 24  -2585.237759  26579.400664    485.282809    280.009730                    
V 24  -2981.541391    184.396678 -31333.467541       .032007                    
P 26 -12876.294255   7822.850667  21372.281422    -40.785910                    
V 26 -22433.552089 -17292.184687  -6589.156779      -.046322                    
P 27 -14913.636187   4795.059913  22116.389379    144.034475                    
V 27   -260.257813 -26433.588160   5876.401249       .034217                    
P 28   1649.349730 -16640.956724  21043.289702    -18.260204                    
V 28  23697.527480  -9945.172929 -10233.352350       .007966                    
P 29  -8231.341490  12768.725901 -21692.379155    113.469337                    
V 29 -22742.257408 -15941.155676   -712.561047       .028510                    
P 30 -16936.375306  17829.958348 -10355.295024    234.715404                    
V 30 -12268.478568   3889.397491  27872.375483       .033795                    
P 31   7646.434770  21492.380482 -13244.000729    -41.561415                    
V 31  -3071.010880  17047.153977  25658.970468       .020335                    
P 32  25194.358727  -5917.095141   5468.669896     48.975984                    
V 32  -4996.347959   5221.938403  30920.744670      -.085158                    
EOF
